NORAD_CAT_ID,OBJECT_NAME,OBJECT_TYPE,EPOCH,MEAN_MOTION,ECCENTRICITY,INCLINATION,RA_OF_ASC_NODE,ARG_OF_PERICENTER,MEAN_ANOMALY,BSTAR,MEAN_MOTION_DOT,MEAN_MOTION_DDOT,TLE_LINE0,TLE_LINE1,TLE_LINE2,SEMIMAJOR_AXIS,PERIOD,APOGEE,PERIGEE,DECAYED
49456.0,STARLINK-3124,PAYLOAD,2022-11-11 06:56:47,15.08848826,0.0002631999999999,53.2163,270.7808,26.4403,333.6723,0.00080045,0.00012477,0.0,0 STARLINK-3124,1 49456U 21104BA  22315.28943904  .00012477  00000-0  80045-3 0  9999,2 49456  53.2163 270.7808 0002632  26.4403 333.6723 15.08848826 55449,6917.853,95.437,541.539,537.898,0.0
49456.0,STARLINK-3124,PAYLOAD,2022-11-11 18:04:29,15.08840669,0.0002607,53.2152,268.6982,27.9383,332.1749,0.00015383,2.161e-05,0.0,0 STARLINK-3124,1 49456U 21104BA  22315.75312153  .00002161  00000-0  15383-3 0  9999,2 49456  53.2152 268.6982 0002607  27.9383 332.1749 15.08840669 56586,6917.878000000002,95.438,541.547,537.94,0.0
49456.0,STARLINK-3124,PAYLOAD,2022-11-11 21:15:16,15.08842616,0.0002601,53.2162,268.1043,26.1125,333.9998,0.00037664,5.712e-05,0.0,0 STARLINK-3124,1 49456U 21104BA  22315.88560229  .00005712  00000-0  37664-3 0  9993,2 49456  53.2162 268.1043 0002601  26.1125 333.9998 15.08842616 55532,6917.871999999999,95.437,541.5369999999998,537.938,0.0
49456.0,STARLINK-3124,PAYLOAD,2022-11-12 06:47:34,15.0885858,0.000262,53.2162,266.3206,24.5474,335.5642,0.0009996,0.00015665,0.0,0 STARLINK-3124,1 49456U 21104BA  22316.28303907  .00015665  00000-0  99960-3 0  9991,2 49456  53.2162 266.3206 0002620  24.5474 335.5642 15.08858580 56669,6917.824000000001,95.436,541.501,537.876,0.0
49456.0,STARLINK-3124,PAYLOAD,2022-11-12 21:06:03,15.08838506,0.0002725,53.2167,263.6453,26.1012,334.0117,0.00014627,2.04e-05,0.0,0 STARLINK-3124,1 49456U 21104BA  22316.87920397  .00002040  00000-0  14627-3 0  9994,2 49456  53.2167 263.6453 0002725  26.1012 334.0117 15.08838506 55688,6917.885,95.438,541.635,537.865,0.0
49456.0,STARLINK-3124,PAYLOAD,2022-11-13 03:27:35,15.08835524,0.000266,53.216,262.4551,28.6334,331.4804,-1.1689e-05,-4.75e-06,0.0,0 STARLINK-3124,1 49456U 21104BA  22317.14416551 -.00000475  00000-0 -11689-4 0  9995,2 49456  53.2160 262.4551 0002660  28.6334 331.4804 15.08835524 56793,6917.894,95.438,541.599,537.919,0.0
49456.0,STARLINK-3124,PAYLOAD,2022-11-13 06:38:22,15.08839032,0.000273,53.2161,261.8613,27.2648,332.8487,2.0061e-05,3.1e-07,0.0,0 STARLINK-3124,1 49456U 21104BA  22317.27664407  .00000031  00000-0  20061-4 0  9994,2 49456  53.2161 261.8613 0002730  27.2648 332.8487 15.08839032 55741,6917.8830000000025,95.438,541.637,537.86,0.0
49456.0,STARLINK-3124,PAYLOAD,2022-11-13 19:21:27,15.08837279,0.0002728,53.2161,259.482,27.305,332.8085,0.00010005,1.304e-05,0.0,0 STARLINK-3124,1 49456U 21104BA  22317.80656622  .00001304  00000-0  10005-3 0  9993,2 49456  53.2161 259.4820 0002728  27.3050 332.8085 15.08837279 55823,6917.889,95.438,541.641,537.867,0.0
49456.0,STARLINK-3124,PAYLOAD,2022-11-14 01:43:00,15.08831223,0.0002546,53.2162,258.2917,29.4263,330.6872,-1.1518e-05,-4.72e-06,0.0,0 STARLINK-3124,1 49456U 21104BA  22318.07152964 -.00000472  00000-0 -11518-4 0  9991,2 49456  53.2162 258.2917 0002546  29.4263 330.6872 15.08831223 55862,6917.906999999997,95.438,541.534,538.011,0.0
49456.0,STARLINK-3124,PAYLOAD,2022-11-14 12:50:42,15.08832882,0.0002591,53.2163,256.2105,27.5011,332.6118,-8.2399e-05,-1.599e-05,0.0,0 STARLINK-3124,1 49456U 21104BA  22318.53521149 -.00001599  00000-0 -82399-4 0  9993,2 49456  53.2163 256.2105 0002591  27.5011 332.6118 15.08832882 57005,6917.901999999999,95.438,541.56,537.975,0.0
49456.0,STARLINK-3124,PAYLOAD,2022-11-15 12:41:29,15.08840223,0.000266,53.217,251.7493,28.6481,331.4657,0.00013458,1.854e-05,0.0,0 STARLINK-3124,1 49456U 21104BA  22319.52881255  .00001854  00000-0  13458-3 0  9991,2 49456  53.2170 251.7493 0002660  28.6481 331.4657 15.08840223 56083,6917.88,95.438,541.585,537.905,0.0
49456.0,STARLINK-3124,PAYLOAD,2022-11-15 17:27:38,15.08840174,0.0002503,53.2163,250.8576,25.8097,334.302,0.0001338,1.842e-05,0.0,0 STARLINK-3124,1 49456U 21104BA  22319.72753114  .00001842  00000-0  13380-3 0  9996,2 49456  53.2163 250.8576 0002503  25.8097 334.3020 15.08840174 57188,6917.88,95.438,541.476,538.013,0.0
49456.0,STARLINK-3124,PAYLOAD,2022-11-15 20:38:25,15.08830292,0.0003152,53.2164,250.2655,22.2528,337.86,3.4845e-05,2.66e-06,0.0,0 STARLINK-3124,1 49456U 21104BA  22319.86001788  .00000266  00000-0  34845-4 0  9993,2 49456  53.2164 250.2655 0003152  22.2528 337.8600 15.08830292 56138,6917.91,95.438,541.956,537.595,0.0
49456.0,STARLINK-3124,PAYLOAD,2022-11-16 01:24:34,15.08831615,0.0003084,53.2161,249.3725,23.7731,336.3403,5.4322e-05,5.76e-06,0.0,0 STARLINK-3124,1 49456U 21104BA  22320.05873841  .00000576  00000-0  54322-4 0  9999,2 49456  53.2161 249.3725 0003084  23.7731 336.3403 15.08831615 57235,6917.906,95.438,541.905,537.638,0.0
49456.0,STARLINK-3124,PAYLOAD,2022-11-16 12:32:17,15.08824872,0.000225,53.2158,247.2894,23.1458,336.9635,-4.5107e-05,-1.006e-05,0.0,0 STARLINK-3124,1 49456U 21104BA  22320.52242324 -.00001006  00000-0 -45107-4 0  9999,2 49456  53.2158 247.2894 0002250  23.1458 336.9635 15.08824872 56238,6917.927,95.439,541.3480000000002,538.235,0.0
49456.0,STARLINK-3124,PAYLOAD,2022-11-17 01:15:20,15.08863608,0.0002485,53.2159,244.9105,25.9068,334.2048,0.00039103,5.945e-05,0.0,0 STARLINK-3124,1 49456U 21104BA  22321.05232151  .00005945  00000-0  39103-3 0  9997,2 49456  53.2159 244.9105 0002485  25.9068 334.2048 15.08863608 57381,6917.808000000001,95.436,541.3919999999998,537.9540000000002,0.0
49456.0,STARLINK-3124,PAYLOAD,2022-11-17 13:58:26,15.08839497,0.0002344,53.2158,242.5306,28.4941,331.6179,3.4801e-05,2.66e-06,0.0,0 STARLINK-3124,1 49456U 21104BA  22321.58225255  .00000266  00000-0  34801-4 0  9994,2 49456  53.2158 242.5306 0002344  28.4941 331.6179 15.08839497 57463,6917.882,95.438,541.368,538.125,0.0
49456.0,STARLINK-3124,PAYLOAD,2022-11-17 20:19:59,15.0884184,0.0002527,53.2152,241.342,30.2196,329.8942,4.4719e-06,-2.17e-06,0.0,0 STARLINK-3124,1 49456U 21104BA  22321.84721149 -.00000217  00000-0  44719-5 0  9993,2 49456  53.2152 241.3420 0002527  30.2196 329.8942 15.08841840 56435,6917.875,95.437,541.488,537.992,0.0
49456.0,STARLINK-3124,PAYLOAD,2022-11-18 04:16:54,15.08842569,0.0002549,53.2149,239.854,30.0741,330.0397,0.0001472,2.055e-05,0.0,0 STARLINK-3124,1 49456U 21104BA  22322.17841031  .00002055  00000-0  14720-3 0  9991,2 49456  53.2149 239.8540 0002549  30.0741 330.0397 15.08842569 56486,6917.873000000001,95.437,541.501,537.974,0.0
49456.0,STARLINK-3124,PAYLOAD,2022-11-19 00:56:54,15.08850881,0.0002503,53.2155,235.9893,27.958,332.1546,-2.8344e-05,-7.400000000000001e-06,0.0,0 STARLINK-3124,1 49456U 21104BA  22323.03952479 -.00000740  00000-0 -28344-4 0  9995,2 49456  53.2155 235.9893 0002503  27.9580 332.1546 15.08850881 57685,6917.847,95.437,541.444,537.981,0.0
49456.0,STARLINK-3124,PAYLOAD,2022-11-19 04:07:41,15.08848611,0.000256,53.2153,235.3942,30.5463,329.5678,0.00021654,3.16e-05,0.0,0 STARLINK-3124,1 49456U 21104BA  22323.17200653  .00003160  00000-0  21654-3 0  9993,2 49456  53.2153 235.3942 0002560  30.5463 329.5678 15.08848611 56633,6917.854,95.437,541.49,537.948,0.0
49456.0,STARLINK-3124,PAYLOAD,2022-11-19 18:26:09,15.08842322,0.0002522,53.2159,232.7187,29.8331,330.2804,0.00012426,1.6899999999999994e-05,0.0,0 STARLINK-3124,1 49456U 21104BA  22323.76816946  .00001690  00000-0  12426-3 0  9999,2 49456  53.2159 232.7187 0002522  29.8331 330.2804 15.08842322 57795,6917.873000000001,95.437,541.4830000000002,537.994,0.0
49456.0,STARLINK-3124,PAYLOAD,2022-11-20 03:58:29,15.08837327,0.0002729,53.2166,230.9343,27.1579,332.9556,2.342e-05,8.4e-07,0.0,0 STARLINK-3124,1 49456U 21104BA  22324.16561473  .00000084  00000-0  23420-4 0  9999,2 49456  53.2166 230.9343 0002729  27.1579 332.9556 15.08837327 57850,6917.889,95.438,541.641,537.866,0.0
49456.0,STARLINK-3124,PAYLOAD,2022-11-20 18:16:56,15.08845042,0.0002602,53.2166,228.2584,26.354,333.7584,7.1688e-05,8.53e-06,0.0,0 STARLINK-3124,1 49456U 21104BA  22324.76176815  .00000853  00000-0  71688-4 0  9990,2 49456  53.2166 228.2584 0002602  26.3540 333.7584 15.08845042 57949,6917.865,95.437,541.53,537.93,0.0
49456.0,STARLINK-3124,PAYLOAD,2022-11-21 02:13:53,15.08834513,0.0002704,53.2162,226.7706,30.5818,329.5332,-2.8475e-05,-7.42e-06,0.0,0 STARLINK-3124,1 49456U 21104BA  22325.09297632 -.00000742  00000-0 -28475-4 0  9993,2 49456  53.2162 226.7706 0002704  30.5818 329.5332 15.08834513 57992,6917.897,95.438,541.633,537.8919999999998,0.0
49456.0,STARLINK-3124,PAYLOAD,2022-11-21 03:49:16,15.08834703,0.0002682,53.2164,226.4742,31.6931,328.4222,-1.6727e-05,-5.55e-06,0.0,0 STARLINK-3124,1 49456U 21104BA  22325.15921688 -.00000555  00000-0 -16727-4 0  9994,2 49456  53.2164 226.4742 0002682  31.6931 328.4222 15.08834703 56934,6917.897,95.438,541.617,537.906,0.0
49456.0,STARLINK-3124,PAYLOAD,2022-11-21 18:07:44,15.0883355,0.0002634,53.2162,223.798,28.9531,331.1607,0.00011671,1.569e-05,0.0,0 STARLINK-3124,1 49456U 21104BA  22325.75537526  .00001569  00000-0  11671-3 0  9990,2 49456  53.2162 223.7980 0002634  28.9531 331.1607 15.08833550 57026,6917.9,95.438,541.587,537.943,0.0
49456.0,STARLINK-3124,PAYLOAD,2022-11-22 10:01:35,15.08834432,0.0002747,53.2161,220.8241,30.7345,329.3808,2.8809e-05,1.7e-06,0.0,0 STARLINK-3124,1 49456U 21104BA  22326.41777735  .00000170  00000-0  28809-4 0  9991,2 49456  53.2161 220.8241 0002747  30.7345 329.3808 15.08834432 58193,6917.897,95.438,541.663,537.862,0.0
49456.0,STARLINK-3124,PAYLOAD,2022-11-22 21:09:18,15.08828234,0.0002808,53.2164,218.7423,35.3019,324.8158,0.00040126,6.102e-05,0.0,0 STARLINK-3124,1 49456U 21104BA  22326.88146128  .00006102  00000-0  40126-3 0  9994,2 49456  53.2164 218.7423 0002808  35.3019 324.8158 15.08828234 57191,6917.916,95.438,541.724,537.839,0.0
